HORYU-4                 
1 41340U 16012D   20172.75636251  .00000329  00000-0  18146-4 0  9997
2 41340  31.0058 310.7542 0013810 182.3611 177.6961 15.01506684238374
E-ST@R-II               
1 41459U 16025D   20173.04900768  .00002098  00000-0  10873-3 0  9995
2 41459  98.1042 283.2246 0165148 199.2163 160.2781 15.06426465227984
AAUSAT 4                
1 41460U 16025E   20173.04817164  .00002678  00000-0  13342-3 0  9992
2 41460  98.1029 285.5665 0154253 187.9352 171.9468 15.08737158228180
BEESAT-4                
1 41619U 16040W   20173.10237041  .00000979  00000-0  43226-4 0  9999
2 41619  97.3190 232.5505 0011683 158.5042 201.6689 15.24022960209956
CANX-7                  
1 41788U 16059F   20173.22582863  .00004091  00000-0  56670-3 0  9999
2 41788  98.2543 261.1550 0022173 283.4275  76.4631 14.78418028200379
RAVAN                   
1 41849U 16067B   20172.81437102 -.00000445  00000-0 -31975-4 0  9998
2 41849  97.9347 282.7248 0007098 229.0908 130.9700 14.98568194197129
CELTEE 1                
1 41850U 16067C   20172.81268340 -.00000442  00000-0 -32919-4 0  9992
2 41850  97.9277 280.4396 0007627 233.3220 126.7301 14.97186353197004
OPTICUBE 04             
1 41851U 16067D   20173.07783471 -.00000497  00000-0 -38001-4 0  9997
2 41851  97.9270 280.3261 0007713 234.4968 125.5534 14.96927191197024
AEROCUBE 8D             
1 41852U 16067E   20173.09397567  .00000100  00000-0  13989-4 0  9994
2 41852  97.9269 280.1781 0008699 233.6045 126.4374 14.96909866197008
AEROCUBE 8C             
1 41853U 16067F   20172.79140545  .00000415  00000-0  41477-4 0  9995
2 41853  97.9279 279.7755 0008511 235.2545 124.7875 14.96882326196952
PROMETHEUS 2-1          
1 41854U 16067G   20172.82710648  .00000165  00000-0  19565-4 0  9992
2 41854  97.9275 280.1427 0009375 235.2198 124.8141 14.97195508196973
PROMETHEUS 2-3          
1 41855U 16067H   20173.09484942  .00000219  00000-0  24207-4 0  9997
2 41855  97.9277 280.4470 0009550 234.4818 125.5514 14.97205377197016
INS-1B                  
1 41954U 17008G   20172.75910330  .00000819  00000-0  35854-4 0  9996
2 41954  97.3540 237.1006 0007371 293.9390  66.1075 15.24791170185876
BGUSAT                  
1 41999U 17008BD  20172.74804816  .00001456  00000-0  56812-4 0  9990
2 41999  97.3655 241.2526 0006298 305.9134  54.1520 15.27520609185458
DIDO-2                  
1 42000U 17008BE  20173.11646383  .00000568  00000-0  25961-4 0  9993
2 42000  97.3547 237.9566 0007094 315.8515  44.2156 15.24482581185320
PEASSS                  
1 42015U 17008BV  20172.82875400  .00000746  00000-0  32128-4 0  9991
2 42015  97.3572 239.2812 0005097 325.1892  34.9012 15.25624919185866
AL-FARABI 1             
1 42016U 17008BW  20172.65139869  .00000966  00000-0  39807-4 0  9990
2 42016  97.3600 240.1563 0004933 324.9452  35.1461 15.26467950186010
NAYIF-1 (EO-88)         
1 42017U 17008BX  20172.82668920  .00001019  00000-0  41778-4 0  9995
2 42017  97.3596 240.3398 0004962 323.2019  36.8878 15.26509764186061
UCLSAT                  
1 42765U 17036A   20173.09790626  .00000788  00000-0  35827-4 0  9995
2 42765  97.3002 227.2419 0011787  22.3597 337.8151 15.23537403166549
LITUANICASAT-2          
1 42768U 17036D   20172.67977957  .00001383  00000-0  59678-4 0  9997
2 42768  97.3059 226.8121 0014773  11.9906 348.1680 15.24089766166339
AALTO-1                 
1 42775U 17036L   20172.80598459  .00000510  00000-0  25390-4 0  9991
2 42775  97.2978 224.7661 0014152  15.1158 345.0498 15.21848917166182
URSA MAIOR              
1 42776U 17036M   20173.18935080  .00000565  00000-0  27657-4 0  9997
2 42776  97.2990 225.4241 0013908  13.6401 346.5208 15.22032828166251
COMPASS 2               
1 42777U 17036N   20173.16206383  .00001148  00000-0  50286-4 0  9995
2 42777  97.3048 227.7003 0012418  12.7737 347.3813 15.23940096166364
DIAMOND RED             
1 42783U 17036U   20173.09413649  .00000673  00000-0  31649-4 0  9993
2 42783  97.3003 226.5026 0012539  23.6994 336.4818 15.22845974166300
PEGASUS                 
1 42784U 17036V   20172.79549243  .00000755  00000-0  34772-4 0  9991
2 42784  97.3008 226.6358 0012410  23.6714 336.5092 15.23225591166283
DIAMOND GREEN           
1 42785U 17036W   20172.56726294  .00000687  00000-0  32212-4 0  9991
2 42785  97.3006 226.0260 0012518  26.1979 333.9889 15.22845965166296
DIAMOND BLUE            
1 42786U 17036X   20172.56646677  .00000677  00000-0  31816-4 0  9996
2 42786  97.3005 226.0206 0012370  26.4500 333.7366 15.22845537166298
NUDTSAT                 
1 42787U 17036Y   20172.91521277  .00001495  00000-0  63482-4 0  9997
2 42787  97.3047 228.1550 0012431  18.0304 342.1367 15.24543805166220
SUCHAI                  
1 42788U 17036Z   20173.14686951  .00000918  00000-0  40964-4 0  9994
2 42788  97.3016 227.5693 0011853  21.2142 338.9584 15.23778151166442
SKCUBE                  
1 42789U 17036AA  20172.79928099  .00000834  00000-0  37671-4 0  9995
2 42789  97.3011 227.0825 0011789  22.8102 337.3657 15.23618563166300
VZLUSAT-1               
1 42790U 17036AB  20172.64169223  .00001137  00000-0  49004-4 0  9997
2 42790  97.3036 227.8842 0011230  21.6640 338.5071 15.24525326166332
ROBUSTA-1B              
1 42792U 17036AD  20173.08100817  .00000895  00000-0  40012-4 0  9992
2 42792  97.3013 227.6090 0011356  22.5360 337.6374 15.23807869166374
CICERO 6                
1 42793U 17036AE  20172.74108887  .00000596  00000-0  28125-4 0  9999
2 42793  97.2989 226.6814 0010814  26.6322 333.5469 15.23151798166362
D-SAT                   
1 42794U 17036AF  20172.86419063  .00000034  00000-0  83864-5 0  9993
2 42794  97.4928 205.3512 0125939 354.4031   5.5772 14.91282784163208
CORVUS BC2              
1 42846U 17042X   20172.79382731 -.00000083  00000-0 -29616-5 0  9992
2 42846  97.5229  56.2022 0007979 267.1479  92.8828 14.92108908159908
CORVUS BC1              
1 42847U 17042Y   20172.72224079 -.00000078  00000-0 -24583-5 0  9998
2 42847  97.5231  56.3039 0007634 266.4761  93.5585 14.92210240159894
MIRATA                  
1 43015U 17073C   20173.19166310  .00001061  00000-0  86595-4 0  9996
2 43015  97.7193  85.2642 0254361  36.6750 325.1574 14.79662717139770
MAKERSAT 0              
1 43016U 17073D   20172.74817896  .00000727  00000-0  61038-4 0  9992
2 43016  97.7229  85.0178 0257119  39.1705 322.7809 14.79224328139681
DELLINGR (RBLE)         
1 43021U 98067NJ  20172.86816526  .00009477  00000-0  79109-4 0  9991
2 43021  51.6358 262.3743 0001671  56.2537 303.8620 15.70849733147405
AEROCUBE 7B (OCSD B)    
1 43042U 17071F   20172.86256119  .00002623  00000-0  66491-4 0  9992
2 43042  51.6388  49.8331 0005055  63.6914 296.4591 15.43634073142906
AEROCUBE 7C (OCSD C)    
1 43043U 17071G   20172.86599551  .00002640  00000-0  66904-4 0  9991
2 43043  51.6388  49.8709 0005300  67.1962 292.9584 15.43608239142875
CHEFSAT                 
1 43044U 17071H   20172.84397897  .00005582  00000-0  11150-3 0  9999
2 43044  51.6390  34.9993 0004946  74.4771 285.6763 15.48442827143078
ASGARDIA 1              
1 43049U 17071N   20172.85929693  .00002416  00000-0  61915-4 0  9998
2 43049  51.6399  49.1504 0003066  82.3488 277.7846 15.43647941142884
ISARA                   
1 43050U 17071P   20172.82815918  .00004772  00000-0  99913-4 0  9997
2 43050  51.6372  37.7717 0002972  86.3790 273.7538 15.47423806143039
PROPCUBE 2 (FAUNA)      
1 43052U 17071R   20172.84449446  .00002544  00000-0  63781-4 0  9999
2 43052  51.6392  47.5690 0003003  80.4080 279.7246 15.44103252142897
CORVUS BC3              
1 43118U 18004H   20173.10531788  .00000511  00000-0  24465-4 0  9998
2 43118  97.4436 243.3484 0011473  46.6964 313.5227 15.23373937135556
MICROMAS-2A             
1 43131U 18004W   20172.60002792  .00001222  00000-0  51394-4 0  9996
2 43131  97.4486 244.5892 0010298  48.1600 312.0516 15.25302691135578
SPACEBEE-4              
1 43139U 18004AE  20173.09009510  .00001899  00000-0  75313-4 0  9990
2 43139  97.4520 246.2668 0009620  48.0502 312.1555 15.26599186135709
SPACEBEE-3              
1 43140U 18004AF  20172.90135401  .00002393  00000-0  91654-4 0  9996
2 43140  97.4538 246.7695 0009239  48.0049 312.1975 15.27501806135728
SPACEBEE-2              
1 43141U 18004AG  20172.68375091  .00002548  00000-0  96510-4 0  9991
2 43141  97.4551 246.8127 0009205  48.0531 312.1491 15.27807180135709
SPACEBEE-1              
1 43142U 18004AH  20172.84720294  .00002785  00000-0  10411-3 0  9997
2 43142  97.4555 247.2386 0009128  47.4430 312.7578 15.28166968135739
CICERO 7                
1 43143U 18004AJ  20173.19148564  .00001116  00000-0  47114-4 0  9999
2 43143  97.4465 245.3596 0008697  55.7493 304.4567 15.25339819135687
GOMX-4B                 
1 43196U 18015E   20172.89620666  .00000237  00000-0  12634-4 0  9995
2 43196  97.4387 301.4046 0020542  92.7400 267.6189 15.24264158132425
GOMX-4A                 
1 43197U 18015F   20173.12274065  .00000486  00000-0  22594-4 0  9993
2 43197  97.4374 301.7189 0020641  92.0680  13.1234 15.24513436132472
1KUNS-PF                
1 43466U 98067NP  20162.72983235  .07919004  12439-4  62785-3 0  9997
2 43466  51.6123 283.7308 0007318 301.8476 166.2040 16.39179723119460
UBAKUSAT                
1 43467U 98067NQ  20171.82523738  .00021161  00000-0  13912-3 0  9993
2 43467  51.6351 269.5223 0001622  10.4565 349.6468 15.75653464120489
CUBERRT                 
1 43546U 98067NU  20172.74641704  .00023291  00000-0  16530-3 0  9992
2 43546  51.6343 264.4615 0002790  89.1669 270.9650 15.73805325110764
TEMPEST-D               
1 43547U 98067NV  20172.80058195  .00006404  00000-0  75987-4 0  9995
2 43547  51.6372 294.9764 0005041  70.0904 290.0633 15.62631254110044
RAINCUBE                
1 43548U 98067NW  20172.69203307  .00023539  00000-0  16217-3 0  9998
2 43548  51.6321 273.0634 0002829  83.3862 276.7459 15.74491812110778
